{
  "norad_id": 65087,
  "name": "STARLINK-34686",
  "history": [
    {
      "epoch": "2026-03-28T19:36:14.759136Z",
      "apogee_km": 475.83251333297085,
      "perigee_km": 474.6102853960283,
      "latitude_deg": -1.3447063625709344e-05,
      "longitude_deg": 177.85404591843275,
      "height_km": 476.0091754342578,
      "semi_major_axis_km": 6853.358399364499,
      "eccentricity": 8.917e-05,
      "inclination_deg": 53.1589,
      "raan_deg": 298.1474,
      "arg_perigee_deg": 79.5624,
      "mean_anomaly_deg": 280.5477,
      "mean_motion_rev_day": 15.3019788
    },
    {
      "epoch": "2026-03-29T00:18:24.261120Z",
      "apogee_km": 475.758819966215,
      "perigee_km": 474.59512725349487,
      "latitude_deg": 7.047472611569547e-05,
      "longitude_deg": 106.21318624264164,
      "height_km": 475.93605066513896,
      "semi_major_axis_km": 6853.313973609855,
      "eccentricity": 8.49e-05,
      "inclination_deg": 53.1586,
      "raan_deg": 297.2392,
      "arg_perigee_deg": 76.1338,
      "mean_anomaly_deg": 283.9758,
      "mean_motion_rev_day": 15.30212759
    },
    {
      "epoch": "2026-03-30T06:05:25.140480Z",
      "apogee_km": 475.93384315398544,
      "perigee_km": 474.4520161565961,
      "latitude_deg": -1.7318273517214268e-05,
      "longitude_deg": 12.469689555831833,
      "height_km": 476.0351881957583,
      "semi_major_axis_km": 6853.3299296552905,
      "eccentricity": 0.00010811,
      "inclination_deg": 53.158,
      "raan_deg": 291.4726,
      "arg_perigee_deg": 85.6755,
      "mean_anomaly_deg": 274.4369,
      "mean_motion_rev_day": 15.30207415
    },
    {
      "epoch": "2026-03-30T13:55:41.215296Z",
      "apogee_km": 476.61565957372477,
      "perigee_km": 473.68478276072074,
      "latitude_deg": 1.7254227998281575e-05,
      "longitude_deg": -106.93644965575066,
      "height_km": 475.82281028575574,
      "semi_major_axis_km": 6853.287221167222,
      "eccentricity": 0.00021383,
      "inclination_deg": 53.1574,
      "raan_deg": 289.9553,
      "arg_perigee_deg": 81.2071,
      "mean_anomaly_deg": 278.9172,
      "mean_motion_rev_day": 15.30221719
    },
    {
      "epoch": "2026-03-30T20:11:53.916000Z",
      "apogee_km": 475.855728950085,
      "perigee_km": 474.52906144576355,
      "latitude_deg": -1.8038141027941118e-05,
      "longitude_deg": 157.54039700604935,
      "height_km": 476.1471434396827,
      "semi_major_axis_km": 6853.329395197924,
      "eccentricity": 9.679e-05,
      "inclination_deg": 53.1581,
      "raan_deg": 288.7426,
      "arg_perigee_deg": 94.8827,
      "mean_anomaly_deg": 265.2284,
      "mean_motion_rev_day": 15.30207594
    },
    {
      "epoch": "2026-03-31T13:26:29.168448Z",
      "apogee_km": 475.45172226141494,
      "perigee_km": 474.904416519973,
      "latitude_deg": 1.828374292176066e-05,
      "longitude_deg": -105.15261017013756,
      "height_km": 475.9350948840958,
      "semi_major_axis_km": 6853.315069390694,
      "eccentricity": 3.993e-05,
      "inclination_deg": 53.1582,
      "raan_deg": 285.4046,
      "arg_perigee_deg": 58.7227,
      "mean_anomaly_deg": 301.3813,
      "mean_motion_rev_day": 15.30212392
    },
    {
      "epoch": "2026-04-02T18:44:15.376992Z",
      "apogee_km": 475.4777023815659,
      "perigee_km": 474.58541983490977,
      "latitude_deg": -1.9387282067476495e-05,
      "longitude_deg": 162.89863267029293,
      "height_km": 476.3265453942699,
      "semi_major_axis_km": 6853.168561108238,
      "eccentricity": 6.51e-05,
      "inclination_deg": 53.1582,
      "raan_deg": 275.0872,
      "arg_perigee_deg": 152.5241,
      "mean_anomaly_deg": 207.5794,
      "mean_motion_rev_day": 15.30261462
    },
    {
      "epoch": "2026-04-02T18:44:15.377856Z",
      "apogee_km": 475.47756531819414,
      "perigee_km": 474.58555689828063,
      "latitude_deg": -1.8514403798922945e-05,
      "longitude_deg": 162.89862971079077,
      "height_km": 476.32642379035053,
      "semi_major_axis_km": 6853.168561108238,
      "eccentricity": 6.508e-05,
      "inclination_deg": 53.1582,
      "raan_deg": 275.0872,
      "arg_perigee_deg": 152.5241,
      "mean_anomaly_deg": 207.5794,
      "mean_motion_rev_day": 15.30261462
    },
    {
      "epoch": "2026-04-03T18:15:04.955328Z",
      "apogee_km": 476.1591065025941,
      "perigee_km": 474.5869113065519,
      "latitude_deg": 2.810226982582647e-05,
      "longitude_deg": 164.67611545705688,
      "height_km": 476.20569504533023,
      "semi_major_axis_km": 6853.510008904573,
      "eccentricity": 0.0001147,
      "inclination_deg": 53.1593,
      "raan_deg": 270.5369,
      "arg_perigee_deg": 85.2231,
      "mean_anomaly_deg": 274.8901,
      "mean_motion_rev_day": 15.30147105
    },
    {
      "epoch": "2026-04-04T11:29:41.503776Z",
      "apogee_km": 476.20190071739125,
      "perigee_km": 474.3228356786185,
      "latitude_deg": 1.5182423630432804e-05,
      "longitude_deg": -98.02254463557198,
      "height_km": 476.43878541955047,
      "semi_major_axis_km": 6853.399368198005,
      "eccentricity": 0.00013709,
      "inclination_deg": 53.1593,
      "raan_deg": 267.1987,
      "arg_perigee_deg": 107.242,
      "mean_anomaly_deg": 252.8731,
      "mean_motion_rev_day": 15.30184159
    },
    {
      "epoch": "2026-04-05T11:00:29.760192Z",
      "apogee_km": 476.1684504308714,
      "perigee_km": 474.1763304572569,
      "latitude_deg": 1.5476559200445737e-05,
      "longitude_deg": -96.23697534527929,
      "height_km": 475.6794944578095,
      "semi_major_axis_km": 6853.309390444064,
      "eccentricity": 0.00014534,
      "inclination_deg": 53.1595,
      "raan_deg": 262.651,
      "arg_perigee_deg": 66.8972,
      "mean_anomaly_deg": 293.2182,
      "mean_motion_rev_day": 15.30214294
    },
    {
      "epoch": "2026-04-05T20:24:48.368448Z",
      "apogee_km": 475.91794526327885,
      "perigee_km": 474.35279491939764,
      "latitude_deg": 1.8941710329704762e-05,
      "longitude_deg": 120.47853556998855,
      "height_km": 475.7098343877278,
      "semi_major_axis_km": 6853.272370091338,
      "eccentricity": 0.00011419,
      "inclination_deg": 53.1603,
      "raan_deg": 260.8303,
      "arg_perigee_deg": 65.545,
      "mean_anomaly_deg": 294.567,
      "mean_motion_rev_day": 15.30226693
    },
    {
      "epoch": "2026-04-06T18:21:32.756544Z",
      "apogee_km": 475.926688474844,
      "perigee_km": 474.47268456343227,
      "latitude_deg": 2.7402954194681173e-06,
      "longitude_deg": 146.14419456488068,
      "height_km": 475.9071063796141,
      "semi_major_axis_km": 6853.336686519138,
      "eccentricity": 0.00010608,
      "inclination_deg": 53.1605,
      "raan_deg": 256.5822,
      "arg_perigee_deg": 74.7644,
      "mean_anomaly_deg": 285.3474,
      "mean_motion_rev_day": 15.30205152
    },
    {
      "epoch": "2026-04-07T17:52:20.796096Z",
      "apogee_km": 475.8382036498524,
      "perigee_km": 474.5059203681976,
      "latitude_deg": 9.815061832108202e-06,
      "longitude_deg": 147.92927353096547,
      "height_km": 475.9724573499567,
      "semi_major_axis_km": 6853.309062009025,
      "eccentricity": 9.72e-05,
      "inclination_deg": 53.1608,
      "raan_deg": 252.0331,
      "arg_perigee_deg": 81.5238,
      "mean_anomaly_deg": 278.5873,
      "mean_motion_rev_day": 15.30214404
    },
    {
      "epoch": "2026-04-08T14:15:02.318976Z",
      "apogee_km": 475.7079746500567,
      "perigee_km": 474.7561787526838,
      "latitude_deg": -1.3637561702522099e-05,
      "longitude_deg": -162.5256614926517,
      "height_km": 476.15922198635536,
      "semi_major_axis_km": 6853.3690767013695,
      "eccentricity": 6.944e-05,
      "inclination_deg": 53.1609,
      "raan_deg": 248.0881,
      "arg_perigee_deg": 93.3979,
      "mean_anomaly_deg": 266.7101,
      "mean_motion_rev_day": 15.30194304
    },
    {
      "epoch": "2026-04-09T02:47:28.034880Z",
      "apogee_km": 476.1108500156315,
      "perigee_km": 474.31636869207887,
      "latitude_deg": 2.2148539449083147e-05,
      "longitude_deg": 6.424994901345466,
      "height_km": 476.09922744540694,
      "semi_major_axis_km": 6853.350609353855,
      "eccentricity": 0.00013092,
      "inclination_deg": 53.1599,
      "raan_deg": 245.6609,
      "arg_perigee_deg": 89.2088,
      "mean_anomaly_deg": 270.9063,
      "mean_motion_rev_day": 15.30200489
    },
    {
      "epoch": "2026-04-10T10:08:31.770816Z",
      "apogee_km": 476.011347832452,
      "perigee_km": 474.2966544239707,
      "latitude_deg": -2.112628627075859e-06,
      "longitude_deg": -111.19573452295751,
      "height_km": 476.0752242834826,
      "semi_major_axis_km": 6853.291001128211,
      "eccentricity": 0.0001251,
      "inclination_deg": 53.1592,
      "raan_deg": 239.5933,
      "arg_perigee_deg": 91.5506,
      "mean_anomaly_deg": 268.5638,
      "mean_motion_rev_day": 15.30220453
    },
    {
      "epoch": "2026-04-11T15:55:32.766816Z",
      "apogee_km": 476.21188241316577,
      "perigee_km": 474.1682202864531,
      "latitude_deg": 3.634871723668512e-05,
      "longitude_deg": 155.06197232522263,
      "height_km": 475.8985055089481,
      "semi_major_axis_km": 6853.327051349809,
      "eccentricity": 0.0001491,
      "inclination_deg": 53.1577,
      "raan_deg": 233.8283,
      "arg_perigee_deg": 79.3351,
      "mean_anomaly_deg": 280.7818,
      "mean_motion_rev_day": 15.30208379
    },
    {
      "epoch": "2026-04-12T18:34:26.991264Z",
      "apogee_km": 475.56181597687646,
      "perigee_km": 474.8623631687942,
      "latitude_deg": 1.2867947430319174e-05,
      "longitude_deg": 109.08560798897287,
      "height_km": 475.90460653653776,
      "semi_major_axis_km": 6853.349089572835,
      "eccentricity": 5.103e-05,
      "inclination_deg": 53.1574,
      "raan_deg": 228.6723,
      "arg_perigee_deg": 53.8291,
      "mean_anomaly_deg": 306.2757,
      "mean_motion_rev_day": 15.30200998
    }
  ]
}